OBJECT_NAME,OBJECT_ID,EPOCH,MEAN_MOTION,ECCENTRICITY,INCLINATION,RA_OF_ASC_NODE,ARG_OF_PERICENTER,MEAN_ANOMALY,EPHEMERIS_TYPE,CLASSIFICATION_TYPE,NORAD_CAT_ID,ELEMENT_SET_NO,REV_AT_EPOCH,BSTAR,MEAN_MOTION_DOT,MEAN_MOTION_DDOT
CUBEBUG-2 (LO-74),2013-066AA,2026-06-14T10:49:01.603200,14.93741094,.0058587,97.8904,114.4172,37.8529,322.6788,0,U,39440,999,67658,.39412E-3,.4255E-4,0
FUNCUBE-1 (AO-73),2013-066AE,2026-06-14T11:18:34.873344,15.09460207,.0035411,97.8269,136.8603,210.5774,149.3391,0,U,39444,999,67925,.42769E-3,.688E-4,0
UWE-3,2013-066AG,2026-06-14T09:48:00.988128,14.97004771,.0048024,97.8690,121.4633,330.3951,29.4552,0,U,39446,999,67716,.36061E-3,.4185E-4,0
UNISAT-6,2014-033C,2026-06-14T09:02:24.333792,14.88233319,.0046326,97.7871,318.1381,78.3311,282.3099,0,U,40012,999,64574,.32186E-3,.2974E-4,0
DUCHIFAT-1,2014-033M,2026-06-14T03:26:03.729408,15.64039026,.00034173,98.0474,223.8762,119.3968,240.7631,0,U,40021,999,65527,.11822122E-2,.112865E-2,0
QB50P1,2014-033R,2026-06-13T23:40:36.462432,15.18216590,.00075618,98.0960,175.9078,228.0389,132.0200,0,U,40025,999,65254,.43163671E-3,.8764E-4,0
LILACSAT-2,2015-049K,2026-06-14T11:58:13.462752,15.51366738,.0005381,97.4648,202.2380,258.0299,102.0349,0,U,40908,999,59533,.28568E-3,.16724E-3,0
FOX-1A (AO-85),2015-058D,2026-06-14T11:14:24.646848,14.90958301,.0130281,64.7761,287.4327,57.6479,303.7167,0,U,40967,999,11316,.21121E-3,.2281E-4,0
CAS-2T & KS-1Q,2016-066G,2026-06-14T11:17:02.990400,14.44686169,.0342714,98.3821,241.2375,137.6929,225.1249,0,U,41847,999,50440,.2321E-3,.1606E-4,0
RADFXSAT (FOX-1B),2017-073E,2026-06-14T03:57:52.147296,15.12676252,.01500201,97.4711,32.4423,339.7577,19.7744,0,U,43017,999,46493,.37613429E-3,.8607E-4,0
DIWATA-2B,2018-084H,2026-06-14T12:03:23.385600,15.00441011,.0012336,98.1177,1.5940,178.8655,181.2598,0,U,43678,999,41581,.19736E-3,.242E-4,0
ES'HAIL 2,2018-090A,2026-06-14T11:31:00.200352,1.00269213,.0001518,0.0004,359.7326,123.3043,338.2873,0,U,43700,999,2765,0,.151E-5,0
FOX-1CLIFF (AO-95),2018-099N,2026-06-14T03:04:39.014976,15.26654463,.00082983,97.4390,225.3853,9.0334,351.1052,0,U,43770,999,41275,.45844507E-3,.11968E-3,0
ITASAT,2018-099AE,2026-06-14T10:51:47.068704,15.19027057,.0012397,97.4032,217.0186,10.0529,350.0951,0,U,43786,999,41249,.2924E-3,.6068E-4,0
JY1SAT (JO-97),2018-099AX,2026-06-14T03:49:49.540224,15.33568110,.00042143,97.4134,227.9830,277.2169,82.8595,0,U,43803,999,41316,.5156255E-3,.16674E-3,0
UWE-4,2018-111E,2026-06-14T07:15:43.547040,15.45969448,.0006031,97.5859,93.5612,355.2213,4.8977,0,U,43880,999,41033,.66149E-3,.3225E-3,0
TIANYAN 01,2019-093C,2026-06-14T11:41:05.608608,14.86515621,.0015052,97.7537,237.7845,95.2205,265.0729,0,U,44881,999,35101,.12418E-3,.1047E-4,0
RS-44 & BREEZE-KM R/B,2019-096E,2026-06-14T12:04:52.597056,12.79748825,.0218068,82.5218,341.4886,150.4238,210.9408,0,U,44909,999,30200,.20476E-4,.18E-6,0
SALSAT,2020-068K,2026-06-14T11:07:43.012992,15.29766434,.0008244,97.8844,168.3625,319.7381,40.3247,0,U,46495,999,31494,.26787E-3,.7647E-4,0
XW-3 (CAS-9),2021-131B,2026-06-14T11:39:58.988160,14.41355538,.0005354,98.4982,257.8902,102.9718,257.2069,0,U,50466,999,23472,.18215E-3,.546E-5,0
GREENCUBE (IO-117),2022-080E,2026-06-13T07:02:28.697280,6.42583230,.00089108,70.1444,299.5995,290.4576,69.5127,0,U,53109,999,9181,0,-.3E-7,0
UMKA 1 (RS40S),2023-091G,2026-06-14T11:05:21.208128,15.20790126,.001415,97.5055,224.1695,126.1520,234.1026,0,U,57172,999,16359,.2844E-3,.6214E-4,0
CUBESX-HSE 3 (RS42S),2023-091N,2026-06-14T11:52:00.973344,15.31154708,.0012094,97.5099,231.0473,102.9657,257.2935,0,U,57178,999,16401,.41599E-3,.12475E-3,0
MONITOR-3 (RS58S),2023-091Q,2026-06-14T12:18:44.523648,15.27794971,.0013114,97.5090,228.9390,108.9530,251.3132,0,U,57180,999,16388,.38432E-3,.10387E-3,0
MONITOR-4 (RS57S),2023-091S,2026-06-14T10:14:29.323392,15.27879131,.0013121,97.5084,228.8233,109.5914,250.6743,0,U,57182,999,16387,.36425E-3,.9865E-4,0
MONITOR-2 (RS39S),2023-091U,2026-06-14T11:31:02.445888,15.18888523,.0012665,97.5077,223.7801,119.2727,240.9775,0,U,57184,999,16354,.22243E-3,.4579E-4,0
SVYATOBOR 1 (RS60S),2023-091X,2026-06-14T12:04:19.710624,15.26575227,.0010904,97.5096,229.3049,102.4711,257.7748,0,U,57187,999,16390,.33097E-3,.86E-4,0
VIZARD-METEO (RS38S),2023-091Z,2026-06-14T09:52:29.628192,15.35947926,.0008426,97.5099,234.8407,85.9279,274.2928,0,U,57189,999,16426,.48686E-3,.16991E-3,0
POLYTECH-UNIVERSE 3 (RS46S),2023-091AB,2026-06-14T12:10:43.754304,15.19090142,.0016723,97.5052,223.3120,135.2791,224.9795,0,U,57191,999,16354,.25282E-3,.5254E-4,0
UTMN 2 (RS27S),2023-091AP,2026-06-14T12:19:27.691680,15.31993936,.00094,97.5095,232.6973,91.8085,268.4233,0,U,57203,999,16413,.3926E-3,.1207E-3,0
